STARLINK-30598          
1 58079U 23160E   26068.08445074  .00000041  00000+0  10999-4 0  9991
2 58079  42.9990  81.2724 0000424 309.5491  50.5323 15.27576958132851
XCUBE-1                 
1 62400U 24247Z   26068.48297321  .00009773  00000+0  36224-3 0  9994
2 62400  44.9938 117.7807 0005235 331.1499  28.9094 15.27910558 67702
